NORAD_CAT_ID,OBJECT_NAME,OBJECT_TYPE,EPOCH,MEAN_MOTION,ECCENTRICITY,INCLINATION,RA_OF_ASC_NODE,ARG_OF_PERICENTER,MEAN_ANOMALY,BSTAR,MEAN_MOTION_DOT,MEAN_MOTION_DDOT,TLE_LINE0,TLE_LINE1,TLE_LINE2,SEMIMAJOR_AXIS,PERIOD,APOGEE,PERIGEE,DECAYED
52486.0,STARLINK-3918,PAYLOAD,2022-09-14 14:00:01,15.08760807,0.0001730999999999,53.2182,9.8209,53.088,167.3052,0.0065445999999999,0.001052,0.0,0 STARLINK-3918,1 52486U 22049AM  22257.58334491  .00105200  00000-0  65446-2 0  9992,2 52486  53.2182   9.8209 0001731  53.0880 167.3052 15.08760807  1302,6918.121999999999,95.443,541.185,538.79,0.0
52486.0,STARLINK-3918,PAYLOAD,2022-09-14 22:00:00,15.08837653,0.0001728,53.2173,8.3251,50.9354,181.0023,-0.00011105,-2.055e-05,0.0,0 STARLINK-3918,1 52486U 22049AM  22257.91667824 -.00002055  00000-0 -11105-3 0  9998,2 52486  53.2173   8.3251 0001728  50.9354 181.0023 15.08837653 20419,6917.888000000001,95.438,540.948,538.557,0.0
52486.0,STARLINK-3918,PAYLOAD,2022-09-15 06:00:00,15.08843236,0.0001436,53.2191,6.8249,59.0021,184.572,6.8889e-05,8.09e-06,0.0,0 STARLINK-3918,1 52486U 22049AM  22258.25001157  .00000809  00000-0  68889-4 0  9992,2 52486  53.2191   6.8249 0001436  59.0021 184.5720 15.08843236 20467,6917.87,95.437,540.729,538.742,0.0
52486.0,STARLINK-3918,PAYLOAD,2022-09-15 14:00:01,15.08838157,0.0001569,53.2189,5.3304,51.9203,203.2555,0.0002674,3.97e-05,0.0,0 STARLINK-3918,1 52486U 22049AM  22258.58334491  .00003970  00000-0  26740-3 0  9999,2 52486  53.2189   5.3304 0001569  51.9203 203.2555 15.08838157  1303,6917.886,95.438,540.836,538.6659999999998,0.0
52486.0,STARLINK-3918,PAYLOAD,2022-09-15 19:13:58,15.08839366,0.0001576999999999,53.22,4.3501,54.9335,305.1805,5.2932e-05,5.54e-06,0.0,0 STARLINK-3918,1 52486U 22049AM  22258.80137306  .00000554  00000-0  52932-4 0  9998,2 52486  53.2200   4.3501 0001577  54.9335 305.1805 15.08839366 20396,6917.882,95.438,540.8380000000002,538.656,0.0
52486.0,STARLINK-3918,PAYLOAD,2022-09-16 11:07:50,15.08829965,0.0001523,53.2201,1.3769999999999998,56.1254,303.9883,0.00011489,1.5399999999999998e-05,0.0,0 STARLINK-3918,1 52486U 22049AM  22259.46378246  .00001540  00000-0  11489-3 0  9998,2 52486  53.2201   1.3770 0001523  56.1254 303.9883 15.08829965 20494,6917.911,95.438,540.83,538.722,0.0
52486.0,STARLINK-3918,PAYLOAD,2022-09-16 15:54:00,15.08833031,0.0001547,53.2202,0.4852,56.252,303.8619,0.00013629,1.881e-05,0.0,0 STARLINK-3918,1 52486U 22049AM  22259.66250166  .00001881  00000-0  13629-3 0  9996,2 52486  53.2202   0.4852 0001547  56.2520 303.8619 15.08833031 20528,6917.901999999999,95.438,540.837,538.696,0.0
52486.0,STARLINK-3918,PAYLOAD,2022-09-17 12:34:02,15.08823397,0.0001638,53.2201,356.6199,55.3889,304.7257,-0.00010743,-1.997e-05,0.0,0 STARLINK-3918,1 52486U 22049AM  22260.52363882 -.00001997  00000-0 -10743-3 0  9997,2 52486  53.2201 356.6199 0001638  55.3889 304.7257 15.08823397 20810,6917.931,95.439,540.929,538.663,0.0
52486.0,STARLINK-3918,PAYLOAD,2022-09-17 15:44:49,15.08772507,0.0001973,53.22,356.0252,57.0229,303.0952,0.00061306,9.464e-05,0.0,0 STARLINK-3918,1 52486U 22049AM  22260.65613205  .00009464  00000-0  61306-3 0  9994,2 52486  53.2200 356.0252 0001973  57.0229 303.0952 15.08772507 20834,6918.087,95.442,541.317,538.587,0.0
52486.0,STARLINK-3918,PAYLOAD,2022-09-17 23:41:44,15.08825692,0.0001645,53.2201,354.5387,55.0043,305.1103,-2.586300000000001e-05,-6.99e-06,0.0,0 STARLINK-3918,1 52486U 22049AM  22260.98731938 -.00000699  00000-0 -25863-4 0  9996,2 52486  53.2201 354.5387 0001645  55.0043 305.1103 15.08825692 20885,6917.924,95.438,540.927,538.651,0.0
52486.0,STARLINK-3918,PAYLOAD,2022-09-18 10:49:26,15.08830374,0.0001619,53.2197,352.4563,57.1726,302.9422,5.539999999999999e-05,5.94e-06,0.0,0 STARLINK-3918,1 52486U 22049AM  22261.45099741  .00000594  00000-0  55400-4 0  9990,2 52486  53.2197 352.4563 0001619  57.1726 302.9422 15.08830374 20954,6917.91,95.438,540.895,538.655,0.0
52486.0,STARLINK-3918,PAYLOAD,2022-09-18 12:24:49,15.08831343,0.0001645,53.2197,352.159,57.2258,302.8893,6.1174e-05,6.85e-06,0.0,0 STARLINK-3918,1 52486U 22049AM  22261.51723716  .00000685  00000-0  61174-4 0  9999,2 52486  53.2197 352.1590 0001645  57.2258 302.8893 15.08831343 20803,6917.906999999997,95.438,540.91,538.634,0.0
52486.0,STARLINK-3918,PAYLOAD,2022-09-18 15:35:35,15.08834514,0.0001617,53.2197,351.5641,58.1476,301.9673,8.2561e-05,1.026e-05,0.0,0 STARLINK-3918,1 52486U 22049AM  22261.64971524  .00001026  00000-0  82561-4 0  9998,2 52486  53.2197 351.5641 0001617  58.1476 301.9673 15.08834514 20825,6917.897,95.438,540.881,538.644,0.0
52486.0,STARLINK-3918,PAYLOAD,2022-09-19 12:15:35,15.08845942,0.000162,53.2199,347.6988,57.2001,302.9147,0.00028984,4.329e-05,0.0,0 STARLINK-3918,1 52486U 22049AM  22262.51082378  .00004329  00000-0  28984-3 0  9992,2 52486  53.2199 347.6988 0001620  57.2001 302.9147 15.08845942 21112,6917.861999999999,95.437,540.8480000000002,538.607,0.0
52486.0,STARLINK-3918,PAYLOAD,2022-09-19 15:26:21,15.08846279,0.0001624,53.2199,347.1042,57.6174,302.4976,0.00028736,4.289e-05,0.0,0 STARLINK-3918,1 52486U 22049AM  22262.64330405  .00004289  00000-0  28736-3 0  9993,2 52486  53.2199 347.1042 0001624  57.6174 302.4976 15.08846279 20979,6917.861,95.437,540.85,538.6030000000002,0.0
52486.0,STARLINK-3918,PAYLOAD,2022-09-20 07:20:13,15.08841637,0.0001704,53.2198,344.1311,57.9757,302.14,0.0001097,1.458e-05,0.0,0 STARLINK-3918,1 52486U 22049AM  22263.30571160  .00001458  00000-0  10970-3 0  9998,2 52486  53.2198 344.1311 0001704  57.9757 302.1400 15.08841637 21235,6917.875,95.437,540.919,538.562,0.0
52486.0,STARLINK-3918,PAYLOAD,2022-09-20 15:17:09,15.08841543,0.0001685,53.2196,342.6442,55.9201,304.1951,3.9766e-05,3.45e-06,0.0,0 STARLINK-3918,1 52486U 22049AM  22263.63691291  .00000345  00000-0  39766-4 0  9991,2 52486  53.2196 342.6442 0001685  55.9201 304.1951 15.08841543 21128,6917.876,95.437,540.906,538.575,0.0
52486.0,STARLINK-3918,PAYLOAD,2022-09-21 15:07:56,15.08845689,0.0001761999999999,53.2194,338.1842,56.602,303.514,-9.2555e-05,-1.761e-05,0.0,0 STARLINK-3918,1 52486U 22049AM  22264.63051107 -.00001761  00000-0 -92555-4 0  9998,2 52486  53.2194 338.1842 0001762  56.6020 303.5140 15.08845689 21435,6917.863,95.437,540.947,538.509,0.0
52486.0,STARLINK-3918,PAYLOAD,2022-09-21 21:29:28,15.0885221,0.0001713,53.2195,336.9947,55.0876,305.0277,-5.3347e-05,-1.137e-05,0.0,0 STARLINK-3918,1 52486U 22049AM  22264.89546408 -.00001137  00000-0 -53347-4 0  9992,2 52486  53.2195 336.9947 0001713  55.0876 305.0277 15.08852210 21319,6917.843000000003,95.437,540.893,538.523,0.0
52486.0,STARLINK-3918,PAYLOAD,2022-09-22 11:47:56,15.08838646,0.0001706999999999,53.2263,334.3209,81.825,278.2936,1.9078e-05,1.6e-07,0.0,0 STARLINK-3918,1 52486U 22049AM  22265.49163114  .00000016  00000-0  19078-4 0  9994,2 52486  53.2263 334.3209 0001707  81.8250 278.2936 15.08838646 21561,6917.885,95.438,540.93,538.569,0.0
52486.0,STARLINK-3918,PAYLOAD,2022-09-22 13:23:20,15.08832932,0.0001875,53.221,334.0234,62.1059,298.0123,2.3793e-05,9.000000000000002e-07,0.0,0 STARLINK-3918,1 52486U 22049AM  22265.55787563  .00000090  00000-0  23793-4 0  9992,2 52486  53.2210 334.0234 0001875  62.1059 298.0123 15.08832932 21574,6917.901999999999,95.438,541.064,538.47,0.0
52486.0,STARLINK-3918,PAYLOAD,2022-09-23 10:03:21,15.08862877,0.0001516,53.2207,330.1574,52.8931,307.2199,-0.00040337,-6.706e-05,0.0,0 STARLINK-3918,1 52486U 22049AM  22266.41899408 -.00006706  00000-0 -40337-3 0  9994,2 52486  53.2207 330.1574 0001516  52.8931 307.2199 15.08862877 21703,6917.81,95.436,540.724,538.627,0.0
52486.0,STARLINK-3918,PAYLOAD,2022-09-23 13:14:07,15.08834862,0.0001696,53.2192,329.5611,50.7797,309.3346,1.1955e-05,-9.8e-07,0.0,0 STARLINK-3918,1 52486U 22049AM  22266.55147747 -.00000098  00000-0  11955-4 0  9993,2 52486  53.2192 329.5611 0001696  50.7797 309.3346 15.08834862 21560,6917.896,95.438,540.934,538.5880000000002,0.0
52486.0,STARLINK-3918,PAYLOAD,2022-09-24 11:29:30,15.08848941,0.0001738,53.219,325.3977,49.9244,310.19,0.00015585,2.194e-05,0.0,0 STARLINK-3918,1 52486U 22049AM  22267.47882510  .00002194  00000-0  15585-3 0  9999,2 52486  53.2190 325.3977 0001738  49.9244 310.1900 15.08848941 21863,6917.853,95.437,540.92,538.516,0.0
52486.0,STARLINK-3918,PAYLOAD,2022-09-24 16:15:40,15.08837837,0.0001728,53.2188,324.5052,51.0,309.1146,4.9807e-05,5.05e-06,0.0,0 STARLINK-3918,1 52486U 22049AM  22267.67755496  .00000505  00000-0  49807-4 0  9992,2 52486  53.2188 324.5052 0001728  51.0000 309.1146 15.08837837 21893,6917.887,95.438,540.947,538.557,0.0
52486.0,STARLINK-3918,PAYLOAD,2022-09-25 11:20:17,15.08846,0.0001691,53.2188,320.9369,53.341,306.7737,0.00013285,1.827e-05,0.0,0 STARLINK-3918,1 52486U 22049AM  22268.47242690  .00001827  00000-0  13285-3 0  9996,2 52486  53.2188 320.9369 0001691  53.3410 306.7737 15.08846000 21850,6917.861999999999,95.437,540.8969999999998,538.557,0.0
52486.0,STARLINK-3918,PAYLOAD,2022-09-25 20:52:37,15.08839744,0.0001729,53.2193,319.1534,56.0714,304.0442,6.1744e-05,6.95e-06,0.0,0 STARLINK-3918,1 52486U 22049AM  22268.86987324  .00000695  00000-0  61744-4 0  9995,2 52486  53.2193 319.1534 0001729  56.0714 304.0442 15.08839744 21917,6917.880999999999,95.438,540.942,538.55,0.0
52486.0,STARLINK-3918,PAYLOAD,2022-09-26 09:35:42,15.08838554,0.000185,53.2185,316.7764,54.5278,305.5887,-0.00010686,-1.988e-05,0.0,0 STARLINK-3918,1 52486U 22049AM  22269.39979861 -.00001988  00000-0 -10686-3 0  9997,2 52486  53.2185 316.7764 0001850  54.5278 305.5887 15.08838554 22153,6917.885,95.438,541.03,538.47,0.0
52486.0,STARLINK-3918,PAYLOAD,2022-09-26 12:46:28,15.08837498,0.0001766999999999,53.219,316.1798,54.308,305.8076,-0.00010693,-1.989e-05,0.0,0 STARLINK-3918,1 52486U 22049AM  22269.53227963 -.00001989  00000-0 -10693-3 0  9991,2 52486  53.2190 316.1798 0001767  54.3080 305.8076 15.08837498 22010,6917.888000000001,95.438,540.975,538.531,0.0
